{
  "type": "FeatureCollection",
  "features": [
    {
      "type": "Feature",
      "properties": {
        "norad_id": 33822,
        "name": "COSMOS 2251 DEB",
        "group": "cosmos-2251-debris",
        "lat": -39.06897611655315,
        "lon": 171.3149860811105,
        "alt_km": 851.8995954786487,
        "timestamp": "2025-12-17T19:34:08.430410+00:00",
        "meta_object_name": "COSMOS 2251 DEB",
        "meta_object_id": "1993-036BP",
        "meta_epoch": "2025-12-16T23:57:09.259776",
        "meta_mean_motion": 14.13090786,
        "meta_eccentricity": 0.01530463,
        "meta_inclination": 74.0683,
        "meta_ra_of_asc_node": 186.1649,
        "meta_arg_of_pericenter": 231.4529,
        "meta_mean_anomaly": 249.5965,
        "meta_ephemeris_type": 0,
        "meta_classification_type": "U",
        "meta_norad_cat_id": 33822,
        "meta_element_set_no": 999,
        "meta_rev_at_epoch": 86114,
        "meta_bstar": 0.00099623306,
        "meta_mean_motion_dot": 2.055e-05,
        "meta_mean_motion_ddot": 0,
        "tle_line1": "1 33822U 93036BP  25350.99802384  .00002055  00000+0  99623-3 0  9990",
        "tle_line2": "2 33822  74.0683 186.1649 0153046 231.4529 249.5965 14.13090786861147"
      },
      "geometry": {
        "type": "Point",
        "coordinates": [
          171.3149860811105,
          -39.06897611655315
        ]
      }
    },
    {
      "type": "Feature",
      "properties": {
        "norad_id": 33823,
        "name": "COSMOS 2251 DEB",
        "group": "cosmos-2251-debris",
        "lat": -57.03543899772065,
        "lon": -12.95026444299918,
        "alt_km": 764.3467224055257,
        "timestamp": "2025-12-17T19:34:08.430421+00:00",
        "meta_object_name": "COSMOS 2251 DEB",
        "meta_object_id": "1993-036BQ",
        "meta_epoch": "2025-12-17T03:49:02.598240",
        "meta_mean_motion": 13.98961254,
        "meta_eccentricity": 0.02093536,
        "meta_inclination": 73.8093,
        "meta_ra_of_asc_node": 141.585,
        "meta_arg_of_pericenter": 266.0309,
        "meta_mean_anomaly": 271.6352,
        "meta_ephemeris_type": 0,
        "meta_classification_type": "U",
        "meta_norad_cat_id": 33823,
        "meta_element_set_no": 999,
        "meta_rev_at_epoch": 85671,
        "meta_bstar": 0.00068477513,
        "meta_mean_motion_dot": 1.166e-05,
        "meta_mean_motion_ddot": 0,
        "tle_line1": "1 33823U 93036BQ  25351.15905785  .00001166  00000+0  68478-3 0  9995",
        "tle_line2": "2 33823  73.8093 141.5850 0209353 266.0309 271.6352 13.98961254856714"
      },
      "geometry": {
        "type": "Point",
        "coordinates": [
          -12.95026444299918,
          -57.03543899772065
        ]
      }
    },
    {
      "type": "Feature",
      "properties": {
        "norad_id": 33825,
        "name": "COSMOS 2251 DEB",
        "group": "cosmos-2251-debris",
        "lat": 66.19849980202011,
        "lon": 157.29212908916423,
        "alt_km": 687.9586684160267,
        "timestamp": "2025-12-17T19:34:08.430431+00:00",
        "meta_object_name": "COSMOS 2251 DEB",
        "meta_object_id": "1993-036BS",
        "meta_epoch": "2025-12-17T06:21:29.352384",
        "meta_mean_motion": 14.69802563,
        "meta_eccentricity": 0.00847779,
        "meta_inclination": 73.9851,
        "meta_ra_of_asc_node": 18.9915,
        "meta_arg_of_pericenter": 344.943,
        "meta_mean_anomaly": 90.6498,
        "meta_ephemeris_type": 0,
        "meta_classification_type": "U",
        "meta_norad_cat_id": 33825,
        "meta_element_set_no": 999,
        "meta_rev_at_epoch": 88946,
        "meta_bstar": 0.00060178107,
        "meta_mean_motion_dot": 3.764e-05,
        "meta_mean_motion_ddot": 0,
        "tle_line1": "1 33825U 93036BS  25351.26492306  .00003764  00000+0  60178-3 0  9994",
        "tle_line2": "2 33825  73.9851  18.9915 0084777 344.9430  90.6498 14.69802563889464"
      },
      "geometry": {
        "type": "Point",
        "coordinates": [
          157.29212908916423,
          66.19849980202011
        ]
      }
    },
    {
      "type": "Feature",
      "properties": {
        "norad_id": 33826,
        "name": "COSMOS 2251 DEB",
        "group": "cosmos-2251-debris",
        "lat": 25.251505715698066,
        "lon": 48.07879021224891,
        "alt_km": 686.1460990562591,
        "timestamp": "2025-12-17T19:34:08.430442+00:00",
        "meta_object_name": "COSMOS 2251 DEB",
        "meta_object_id": "1993-036BT",
        "meta_epoch": "2025-12-17T06:31:39.447840",
        "meta_mean_motion": 14.51745298,
        "meta_eccentricity": 0.008274,
        "meta_inclination": 74.065,
        "meta_ra_of_asc_node": 41.3554,
        "meta_arg_of_pericenter": 84.1919,
        "meta_mean_anomaly": 344.2782,
        "meta_ephemeris_type": 0,
        "meta_classification_type": "U",
        "meta_norad_cat_id": 33826,
        "meta_element_set_no": 999,
        "meta_rev_at_epoch": 87835,
        "meta_bstar": 0.000531314,
        "meta_mean_motion_dot": 2.204e-05,
        "meta_mean_motion_ddot": 0,
        "tle_line1": "1 33826U 93036BT  25351.27198435  .00002204  00000+0  53131-3 0  9991",
        "tle_line2": "2 33826  74.0650  41.3554 0082740  84.1919 344.2782 14.51745298878358"
      },
      "geometry": {
        "type": "Point",
        "coordinates": [
          48.07879021224891,
          25.251505715698066
        ]
      }
    },
    {
      "type": "Feature",
      "properties": {
        "norad_id": 33828,
        "name": "COSMOS 2251 DEB",
        "group": "cosmos-2251-debris",
        "lat": 29.86889354469568,
        "lon": 39.19628748654314,
        "alt_km": 760.8348980041173,
        "timestamp": "2025-12-17T19:34:08.430452+00:00",
        "meta_object_name": "COSMOS 2251 DEB",
        "meta_object_id": "1993-036BV",
        "meta_epoch": "2025-12-17T02:47:20.224320",
        "meta_mean_motion": 14.44346236,
        "meta_eccentricity": 0.00294835,
        "meta_inclination": 74.0457,
        "meta_ra_of_asc_node": 229.952,
        "meta_arg_of_pericenter": 302.2142,
        "meta_mean_anomaly": 172.6933,
        "meta_ephemeris_type": 0,
        "meta_classification_type": "U",
        "meta_norad_cat_id": 33828,
        "meta_element_set_no": 999,
        "meta_rev_at_epoch": 88376,
        "meta_bstar": 0.00037177737,
        "meta_mean_motion_dot": 1.26e-05,
        "meta_mean_motion_ddot": 0,
        "tle_line1": "1 33828U 93036BV  25351.11620630  .00001260  00000+0  37178-3 0  9997",
        "tle_line2": "2 33828  74.0457 229.9520 0029483 302.2142 172.6933 14.44346236883762"
      },
      "geometry": {
        "type": "Point",
        "coordinates": [
          39.19628748654314,
          29.86889354469568
        ]
      }
    },
    {
      "type": "Feature",
      "properties": {
        "norad_id": 33830,
        "name": "COSMOS 2251 DEB",
        "group": "cosmos-2251-debris",
        "lat": -70.2874335171814,
        "lon": 93.46342270215244,
        "alt_km": 641.1377757717582,
        "timestamp": "2025-12-17T19:34:08.430462+00:00",
        "meta_object_name": "COSMOS 2251 DEB",
        "meta_object_id": "1993-036BX",
        "meta_epoch": "2025-12-17T02:40:52.221792",
        "meta_mean_motion": 14.7694944,
        "meta_eccentricity": 0.00424913,
        "meta_inclination": 74.032,
        "meta_ra_of_asc_node": 221.794,
        "meta_arg_of_pericenter": 340.9277,
        "meta_mean_anomaly": 138.01,
        "meta_ephemeris_type": 0,
        "meta_classification_type": "U",
        "meta_norad_cat_id": 33830,
        "meta_element_set_no": 999,
        "meta_rev_at_epoch": 89536,
        "meta_bstar": 0.00062287932,
        "meta_mean_motion_dot": 4.419e-05,
        "meta_mean_motion_ddot": 0,
        "tle_line1": "1 33830U 93036BX  25351.11171553  .00004419  00000+0  62288-3 0  9994",
        "tle_line2": "2 33830  74.0320 221.7940 0042491 340.9277 138.0100 14.76949440895364"
      },
      "geometry": {
        "type": "Point",
        "coordinates": [
          93.46342270215244,
          -70.2874335171814
        ]
      }
    },
    {
      "type": "Feature",
      "properties": {
        "norad_id": 33832,
        "name": "COSMOS 2251 DEB",
        "group": "cosmos-2251-debris",
        "lat": 11.849393853335046,
        "lon": -156.27036330625344,
        "alt_km": 705.5658742627484,
        "timestamp": "2025-12-17T19:34:08.430472+00:00",
        "meta_object_name": "COSMOS 2251 DEB",
        "meta_object_id": "1993-036BZ",
        "meta_epoch": "2025-12-17T00:31:51.575808",
        "meta_mean_motion": 14.60697934,
        "meta_eccentricity": 0.00245647,
        "meta_inclination": 74.0535,
        "meta_ra_of_asc_node": 201.8035,
        "meta_arg_of_pericenter": 232.0224,
        "meta_mean_anomaly": 290.6367,
        "meta_ephemeris_type": 0,
        "meta_classification_type": "U",
        "meta_norad_cat_id": 33832,
        "meta_element_set_no": 999,
        "meta_rev_at_epoch": 88487,
        "meta_bstar": 0.00097159806,
        "meta_mean_motion_dot": 4.727e-05,
        "meta_mean_motion_ddot": 0,
        "tle_line1": "1 33832U 93036BZ  25351.02212472  .00004727  00000+0  97160-3 0  9991",
        "tle_line2": "2 33832  74.0535 201.8035 0024564 232.0224 290.6367 14.60697934884877"
      },
      "geometry": {
        "type": "Point",
        "coordinates": [
          -156.27036330625344,
          11.849393853335046
        ]
      }
    }
  ]
}